{
  "type": "FeatureCollection",
  "features": [
    {
      "type": "Feature",
      "properties": {
        "norad_id": 31663,
        "name": "FENGYUN 1C DEB",
        "group": "fengyun-1c-debris",
        "lat": -80.965569716891,
        "lon": -18.77250767719226,
        "alt_km": 577.220106263936,
        "timestamp": "2025-12-20T11:30:28.660506+00:00",
        "meta_object_name": "FENGYUN 1C DEB",
        "meta_object_id": "1999-025CBV",
        "meta_epoch": "2025-12-20T00:31:26.474016",
        "meta_mean_motion": 14.76435765,
        "meta_eccentricity": 0.0189818,
        "meta_inclination": 98.839,
        "meta_ra_of_asc_node": 262.5807,
        "meta_arg_of_pericenter": 214.4069,
        "meta_mean_anomaly": 144.4729,
        "meta_ephemeris_type": 0,
        "meta_classification_type": "U",
        "meta_norad_cat_id": 31663,
        "meta_element_set_no": 999,
        "meta_rev_at_epoch": 99387,
        "meta_bstar": 0.00017058,
        "meta_mean_motion_dot": 1.517e-05,
        "meta_mean_motion_ddot": 0,
        "tle_line1": "1 31663U 99025CBV 25354.02183419  .00001517  00000+0  17058-3 0  9998",
        "tle_line2": "2 31663  98.8390 262.5807 0189818 214.4069 144.4729 14.76435765993874"
      },
      "geometry": {
        "type": "Point",
        "coordinates": [
          -18.77250767719226,
          -80.965569716891
        ]
      }
    },
    {
      "type": "Feature",
      "properties": {
        "norad_id": 31664,
        "name": "FENGYUN 1C DEB",
        "group": "fengyun-1c-debris",
        "lat": 50.85147709051457,
        "lon": -25.120831093888224,
        "alt_km": 843.7653691894884,
        "timestamp": "2025-12-20T11:30:28.660516+00:00",
        "meta_object_name": "FENGYUN 1C DEB",
        "meta_object_id": "1999-025CBW",
        "meta_epoch": "2025-12-19T09:43:14.848608",
        "meta_mean_motion": 14.10303916,
        "meta_eccentricity": 0.0125159,
        "meta_inclination": 98.7526,
        "meta_ra_of_asc_node": 344.7417,
        "meta_arg_of_pericenter": 139.2787,
        "meta_mean_anomaly": 221.7823,
        "meta_ephemeris_type": 0,
        "meta_classification_type": "U",
        "meta_norad_cat_id": 31664,
        "meta_element_set_no": 999,
        "meta_rev_at_epoch": 96095,
        "meta_bstar": 0.00029066,
        "meta_mean_motion_dot": 5.13e-06,
        "meta_mean_motion_ddot": 0,
        "tle_line1": "1 31664U 99025CBW 25353.40503297  .00000513  00000+0  29066-3 0  9997",
        "tle_line2": "2 31664  98.7526 344.7417 0125159 139.2787 221.7823 14.10303916960951"
      },
      "geometry": {
        "type": "Point",
        "coordinates": [
          -25.120831093888224,
          50.85147709051457
        ]
      }
    },
    {
      "type": "Feature",
      "properties": {
        "norad_id": 31665,
        "name": "FENGYUN 1C DEB",
        "group": "fengyun-1c-debris",
        "lat": 81.18374154614963,
        "lon": -36.715671001465196,
        "alt_km": 908.9240935351581,
        "timestamp": "2025-12-20T11:30:28.660528+00:00",
        "meta_object_name": "FENGYUN 1C DEB",
        "meta_object_id": "1999-025CBX",
        "meta_epoch": "2025-12-16T08:14:19.517280",
        "meta_mean_motion": 13.84829693,
        "meta_eccentricity": 0.01897318,
        "meta_inclination": 98.4487,
        "meta_ra_of_asc_node": 32.9474,
        "meta_arg_of_pericenter": 177.2489,
        "meta_mean_anomaly": 182.9759,
        "meta_ephemeris_type": 0,
        "meta_classification_type": "U",
        "meta_norad_cat_id": 31665,
        "meta_element_set_no": 999,
        "meta_rev_at_epoch": 93241,
        "meta_bstar": 0.0010116548,
        "meta_mean_motion_dot": 1.275e-05,
        "meta_mean_motion_ddot": 0,
        "tle_line1": "1 31665U 99025CBX 25350.34328145  .00001275  00000+0  10117-2 0  9997",
        "tle_line2": "2 31665  98.4487  32.9474 0189731 177.2489 182.9759 13.84829693932412"
      },
      "geometry": {
        "type": "Point",
        "coordinates": [
          -36.715671001465196,
          81.18374154614963
        ]
      }
    },
    {
      "type": "Feature",
      "properties": {
        "norad_id": 31666,
        "name": "FENGYUN 1C DEB",
        "group": "fengyun-1c-debris",
        "lat": 39.648285472965505,
        "lon": 136.55986749635258,
        "alt_km": 611.3505200025593,
        "timestamp": "2025-12-20T11:30:28.660538+00:00",
        "meta_object_name": "FENGYUN 1C DEB",
        "meta_object_id": "1999-025CBY",
        "meta_epoch": "2025-12-18T09:10:20.715744",
        "meta_mean_motion": 14.84236546,
        "meta_eccentricity": 0.00232345,
        "meta_inclination": 98.6556,
        "meta_ra_of_asc_node": 141.5378,
        "meta_arg_of_pericenter": 132.8668,
        "meta_mean_anomaly": 227.45,
        "meta_ephemeris_type": 0,
        "meta_classification_type": "U",
        "meta_norad_cat_id": 31666,
        "meta_element_set_no": 999,
        "meta_rev_at_epoch": 97355,
        "meta_bstar": 0.0034864816,
        "meta_mean_motion_dot": 0.00029384,
        "meta_mean_motion_ddot": 0,
        "tle_line1": "1 31666U 99025CBY 25352.38218421  .00029384  00000+0  34865-2 0  9996",
        "tle_line2": "2 31666  98.6556 141.5378 0023234 132.8668 227.4500 14.84236546973552"
      },
      "geometry": {
        "type": "Point",
        "coordinates": [
          136.55986749635258,
          39.648285472965505
        ]
      }
    },
    {
      "type": "Feature",
      "properties": {
        "norad_id": 31667,
        "name": "FENGYUN 1C DEB",
        "group": "fengyun-1c-debris",
        "lat": -78.71770472189938,
        "lon": -26.591312338652067,
        "alt_km": 856.2642854823416,
        "timestamp": "2025-12-20T11:30:28.660548+00:00",
        "meta_object_name": "FENGYUN 1C DEB",
        "meta_object_id": "1999-025CBZ",
        "meta_epoch": "2025-12-19T08:58:22.158048",
        "meta_mean_motion": 14.23508815,
        "meta_eccentricity": 0.0051766,
        "meta_inclination": 99.0843,
        "meta_ra_of_asc_node": 205.588,
        "meta_arg_of_pericenter": 68.7145,
        "meta_mean_anomaly": 291.9549,
        "meta_ephemeris_type": 0,
        "meta_classification_type": "U",
        "meta_norad_cat_id": 31667,
        "meta_element_set_no": 999,
        "meta_rev_at_epoch": 56087,
        "meta_bstar": 0.00019687,
        "meta_mean_motion_dot": 4.07e-06,
        "meta_mean_motion_ddot": 0,
        "tle_line1": "1 31667U 99025CBZ 25353.37386757  .00000407  00000+0  19687-3 0  9996",
        "tle_line2": "2 31667  99.0843 205.5880 0051766  68.7145 291.9549 14.23508815560874"
      },
      "geometry": {
        "type": "Point",
        "coordinates": [
          -26.591312338652067,
          -78.71770472189938
        ]
      }
    },
    {
      "type": "Feature",
      "properties": {
        "norad_id": 31672,
        "name": "FENGYUN 1C DEB",
        "group": "fengyun-1c-debris",
        "lat": 24.744926096625697,
        "lon": 178.40876617709685,
        "alt_km": 690.3891162605632,
        "timestamp": "2025-12-20T11:30:28.660558+00:00",
        "meta_object_name": "FENGYUN 1C DEB",
        "meta_object_id": "1999-025CCE",
        "meta_epoch": "2025-12-09T18:52:12.464832",
        "meta_mean_motion": 14.50862941,
        "meta_eccentricity": 0.0108049,
        "meta_inclination": 98.9574,
        "meta_ra_of_asc_node": 171.1973,
        "meta_arg_of_pericenter": 350.6234,
        "meta_mean_anomaly": 9.2939,
        "meta_ephemeris_type": 0,
        "meta_classification_type": "U",
        "meta_norad_cat_id": 31672,
        "meta_element_set_no": 999,
        "meta_rev_at_epoch": 64828,
        "meta_bstar": 0.002472233,
        "meta_mean_motion_dot": 0.00010473,
        "meta_mean_motion_ddot": 0,
        "tle_line1": "1 31672U 99025CCE 25343.78625538  .00010473  00000+0  24722-2 0  9998",
        "tle_line2": "2 31672  98.9574 171.1973 0108049 350.6234   9.2939 14.50862941648287"
      },
      "geometry": {
        "type": "Point",
        "coordinates": [
          178.40876617709685,
          24.744926096625697
        ]
      }
    },
    {
      "type": "Feature",
      "properties": {
        "norad_id": 31673,
        "name": "FENGYUN 1C DEB",
        "group": "fengyun-1c-debris",
        "lat": -24.9144525673952,
        "lon": 5.170849185981991,
        "alt_km": 880.671365586013,
        "timestamp": "2025-12-20T11:30:28.660570+00:00",
        "meta_object_name": "FENGYUN 1C DEB",
        "meta_object_id": "1999-025CCF",
        "meta_epoch": "2025-12-17T12:07:26.297472",
        "meta_mean_motion": 14.31948399,
        "meta_eccentricity": 0.01255829,
        "meta_inclination": 99.3741,
        "meta_ra_of_asc_node": 186.3601,
        "meta_arg_of_pericenter": 35.3112,
        "meta_mean_anomaly": 325.6307,
        "meta_ephemeris_type": 0,
        "meta_classification_type": "U",
        "meta_norad_cat_id": 31673,
        "meta_element_set_no": 999,
        "meta_rev_at_epoch": 64959,
        "meta_bstar": 0.00017748965,
        "meta_mean_motion_dot": 4.66e-06,
        "meta_mean_motion_ddot": 0,
        "tle_line1": "1 31673U 99025CCF 25351.50516548  .00000466  00000+0  17749-3 0  9991",
        "tle_line2": "2 31673  99.3741 186.3601 0125582  35.3112 325.6307 14.31948399649598"
      },
      "geometry": {
        "type": "Point",
        "coordinates": [
          5.170849185981991,
          -24.9144525673952
        ]
      }
    }
  ]
}